1 29155U 06018A   11261.43508163 -.00000254  00000-0  10000-3 0  7486
2 29155 000.1038 077.4338 0003627 034.6250 326.7322 01.00265772 19517